[{"OBJECT_NAME":"STARLINK-35296","OBJECT_ID":"2025-218L","EPOCH":"2026-03-09T15:00:33.034176","MEAN_MOTION":15.05649542,"ECCENTRICITY":0.000221,"INCLINATION":97.6028,"RA_OF_ASC_NODE":292.9464,"ARG_OF_PERICENTER":80.139,"MEAN_ANOMALY":280.0086,"EPHEMERIS_TYPE":0,"CLASSIFICATION_TYPE":"U","NORAD_CAT_ID":65801,"ELEMENT_SET_NO":999,"REV_AT_EPOCH":2496,"BSTAR":0.0001944,"MEAN_MOTION_DOT":2.745e-5,"MEAN_MOTION_DDOT":0},{"OBJECT_NAME":"COSMOS 2251 DEB","OBJECT_ID":"1993-036AXJ","EPOCH":"2026-03-07T16:14:39.475392","MEAN_MOTION":15.02350149,"ECCENTRICITY":0.00052276,"INCLINATION":74.0329,"RA_OF_ASC_NODE":161.7612,"ARG_OF_PERICENTER":248.7206,"MEAN_ANOMALY":111.3424,"EPHEMERIS_TYPE":0,"CLASSIFICATION_TYPE":"U","NORAD_CAT_ID":36047,"ELEMENT_SET_NO":999,"REV_AT_EPOCH":67212,"BSTAR":0.0041103158,"MEAN_MOTION_DOT":0.00054783,"MEAN_MOTION_DDOT":0}]
